JILIN-1 GAOFEN 3D27     
1 52444U 22048B   25191.76612460  .00011406  00000+0  31704-3 0  9994
2 52444  97.5735 282.7272 0008787 193.9824 166.1178 15.36997613176535
JILIN-1 GAOFEN 3D28     
1 52445U 22048C   25191.75272580  .00011913  00000+0  32549-3 0  9990
2 52445  97.5700 282.4783 0006983 208.6188 151.4674 15.37533373176544
JILIN-1 GAOFEN 3D29     
1 52446U 22048D   25191.79103938  .00011718  00000+0  32410-3 0  9995
2 52446  97.5738 283.0139 0004729 172.8539 187.2773 15.37170520176555
JILIN-1 GAOFEN 3D30     
1 52447U 22048E   25191.78503055  .00013129  00000+0  34129-3 0  9996
2 52447  97.5723 283.6796 0010466 190.3522 169.7509 15.39016164176611
JILIN-1 GAOFEN 3D31     
1 52448U 22048F   25191.77958102  .00011584  00000+0  31366-3 0  9996
2 52448  97.5722 283.1009 0003278 230.7116 129.3838 15.37840279176576
JILIN-1 GAOFEN 3D32     
1 52449U 22048G   25191.76500199  .00066898  00000+0  58168-3 0  9992
2 52449  97.5774 294.3646 0005582 146.3888 213.7728 15.68841806177278
JILIN-1 GAOFEN 3D33     
1 52450U 22048H   25191.78478982  .00032049  00000+0  44571-3 0  9994
2 52450  97.5770 290.6734 0006996 164.6696 195.4772 15.56900135177041
STARLINK-3870           
1 52451U 22049A   25191.40574737  .00000462  00000+0  47118-4 0  9995
2 52451  53.2180  76.7745 0001404  88.6323 271.4830 15.08839758175533
STARLINK-3909           
1 52452U 22049B   25191.81421041  .00003978  00000+0  26778-3 0  9993
2 52452  53.2171  74.8173 0002051 109.4077 250.7135 15.08854556175592
STARLINK-3872           
1 52453U 22049C   25191.39838642  .00000224  00000+0  32137-4 0  9994
2 52453  53.2177  76.8083 0001351  85.7873 274.3274 15.08839212175535
STARLINK-3888           
1 52454U 22049D   25191.40206593  .00000379  00000+0  41874-4 0  9990
2 52454  53.2182  76.7911 0001301  84.9999 275.1142 15.08839646175530
STARLINK-3890           
1 52455U 22049E   25191.39566443  .00000691  00000+0  61509-4 0  9996
2 52455  53.2180  76.8215 0001568  91.1753 268.9419 15.08836954175693
STARLINK-3896           
1 52456U 22049F   25191.39198335  .00000474  00000+0  47902-4 0  9998
2 52456  53.2175  76.8360 0001317  87.6122 272.5021 15.08837192175539
STARLINK-3899           
1 52457U 22049G   25191.38734813  .00000084  00000+0  23382-4 0  9998
2 52457  53.2187  76.8491 0001517  94.7076 265.4089 15.08834551175538
STARLINK-3898           
1 52458U 22049H   25191.38462503  .00001459  00000+0  10975-3 0  9993
2 52458  53.2181  76.8694 0001317  95.5027 264.6116 15.08830096175533
STARLINK-3856           
1 52459U 22049J   25191.76730831  .00000316  00000+0  37935-4 0  9995
2 52459  53.2176  65.1512 0001305  86.2919 273.8222 15.08835565175729
STARLINK-3900           
1 52461U 22049L   25191.76454673 -.00000354  00000+0 -41529-5 0  9994
2 52461  53.2185  55.1624 0001409  90.6208 269.4946 15.08836935175861
STARLINK-3903           
1 52462U 22049M   25191.36346509  .00000091  00000+0  23823-4 0  9991
2 52462  53.2184  66.9747 0001335  88.9238 271.1907 15.08836407175667
STARLINK-3885           
1 52463U 22049N   25191.76086791  .00000036  00000+0  20374-4 0  9997
2 52463  53.2180  55.1795 0001420  90.8100 269.3055 15.08837749175867
STARLINK-3904           
1 52464U 22049P   25191.03498848 -.00000296  00000+0 -52475-6 0  9997
2 52464  53.2190  68.4411 0001402  94.4565 265.6587 15.08837476175615
STARLINK-3863           
1 52465U 22049Q   25191.75718568 -.00000730  00000+0 -27808-4 0  9994
2 52465  53.2184  55.1949 0001425  89.8351 270.2804 15.08838345175861
STARLINK-3873           
1 52467U 22049S   25191.02762697  .00000197  00000+0  30450-4 0  9990
2 52467  53.2177  68.4726 0001353  87.4303 272.6844 15.08835136175614
STARLINK-3864           
1 52468U 22049T   25191.80778684 -.00000154  00000+0  84099-5 0  9993
2 52468  53.2191  64.9708 0001781 119.7717 240.3452 15.08835883175734
STARLINK-3828           
1 52469U 22049U   25190.88778747 -.00000034  00000+0  15961-4 0  9999
2 52469  53.2175  69.1088 0001357  91.6379 268.4769 15.08834994175752
STARLINK-3859           
1 52470U 22049V   25191.80042538  .00000367  00000+0  41158-4 0  9991
2 52470  53.2186  65.0023 0002050 117.7210 242.3987 15.08839231175735
STARLINK-3862           
1 52471U 22049W   25190.95130375 -.00000294  00000+0 -36365-6 0  9991
2 52471  53.2175  68.8254 0001528  89.3391 270.7776 15.08836740175603
STARLINK-3881           
1 52472U 22049X   25191.79674154  .00000755  00000+0  65536-4 0  9993
2 52472  53.2184  65.0194 0002089 133.5717 226.5443 15.08842268175739
STARLINK-3879           
1 52473U 22049Y   25191.07546558 -.00001069  00000+0 -49104-4 0  9995
2 52473  53.2181  68.2593 0001437  95.1270 264.9886 15.08839193175626
STARLINK-3855           
1 52474U 22049Z   25191.02214453  .00000656  00000+0  59278-4 0  9999
2 52474  53.2181  58.5059 0001435  89.2147 270.9009 15.08839126175755
STARLINK-3882           
1 52475U 22049AA  25191.81885397  .00000022  00000+0  19478-4 0  9993
2 52475  53.2204  65.1468 0001722 127.4232 232.6917 15.08837441175895
STARLINK-3835           
1 52476U 22049AB  25191.76921259 -.00000510  00000+0 -13934-4 0  9991
2 52476  53.2183  55.3817 0001475  95.5264 264.5896 15.08835540177100
STARLINK-3860           
1 52477U 22049AC  25191.35606270  .00000814  00000+0  69199-4 0  9999
2 52477  53.2178  56.9980 0001367  83.8535 276.2612 15.08843098177040
STARLINK-3825           
1 52478U 22049AD  25191.78938713  .00000751  00000+0  65292-4 0  9997
2 52478  53.2185  65.0498 0001816 100.9831 259.1365 15.08841197175897
STARLINK-3878           
1 52479U 22049AE  25191.80502757 -.00000196  00000+0  57749-5 0  9999
2 52479  53.2184  54.9800 0002049 112.3574 247.7631 15.08837727177111
STARLINK-3839           
1 52480U 22049AF  25191.38826582  .00000248  00000+0  33664-4 0  9995
2 52480  53.2179  66.8533 0001262  86.0576 274.0560 15.08838874175674
STARLINK-3813           
1 52482U 22049AH  25191.79766479  .00000967  00000+0  78812-4 0  9992
2 52482  53.2205  55.0158 0001446 110.7361 249.3786 15.08842241176039
STARLINK-3875           
1 52483U 22049AJ  25191.80872061  .00001304  00000+0  10000-3 0  9990
2 52483  53.2211  54.9600 0001729 126.4093 233.7059 15.08834326177112
STARLINK-3887           
1 52484U 22049AK  25191.38458546  .00000295  00000+0  36607-4 0  9992
2 52484  53.2179  66.8688 0001308  85.9255 274.1887 15.08841405175679
STARLINK-3913           
1 52485U 22049AL  25191.80133980 -.00000083  00000+0  12848-4 0  9999
2 52485  53.2224  54.9949 0001266 152.9434 207.1622 15.08840600175877
STARLINK-3918           
1 52486U 22049AM  25191.37722675  .00000162  00000+0  28241-4 0  9998
2 52486  53.2175  66.9017 0001293  86.4428 273.6712 15.08837871175678
STARLINK-3902           
1 52487U 22049AN  25191.81239873 -.00000147  00000+0  88483-5 0  9990
2 52487  53.2194  55.0504 0001451 112.9768 247.1377 15.08837419177110
STARLINK-3892           
1 52488U 22049AP  25191.37354756  .00000346  00000+0  39812-4 0  9991
2 52488  53.2176  66.9184 0001335  90.5193 269.5953 15.08836615175674
STARLINK-3923           
1 52489U 22049AQ  25191.38090470  .00000740  00000+0  64579-4 0  9999
2 52489  53.2182  66.8835 0001282  93.2883 266.8256 15.08840147175672
STARLINK-3914           
1 52490U 22049AR  25191.05798748 -.00000069  00000+0  13777-4 0  9997
2 52490  53.2176  58.3369 0001412  89.4177 270.6977 15.08835130175762
STARLINK-3908           
1 52491U 22049AS  25191.06534788 -.00000299  00000+0 -70304-6 0  9998
2 52491  53.2177  58.3032 0001291  87.0705 273.0435 15.08833666175765
STARLINK-3916           
1 52492U 22049AT  25190.91814664 -.00000545  00000+0 -16164-4 0  9992
2 52492  53.2173  58.9629 0001386  90.3836 269.7315 15.08833775175745
STARLINK-3883           
1 52493U 22049AU  25190.86294923 -.00000266  00000+0  13642-5 0  9995
2 52493  53.2177  59.2117 0001430  90.7410 269.3746 15.08831912175732
STARLINK-3857           
1 52494U 22049AV  25191.76822486  .00000069  00000+0  22447-4 0  9999
2 52494  53.2189  55.1461 0001496  96.3693 263.7469 15.08838438175875
STARLINK-3871           
1 52496U 22049AX  25191.80364657  .00000386  00000+0  42321-4 0  9992
2 52496  53.2195  49.9813 0001657 121.2505 238.8650 15.08838874175942
STARLINK-3884           
1 52497U 22049AY  25191.77558822 -.00001029  00000+0 -46565-4 0  9999
2 52497  53.2184  55.1125 0001397  95.5086 264.6066 15.08844828175870
STARLINK-3925           
1 52498U 22049AZ  25191.81698686 -.00000090  00000+0  12423-4 0  9990
2 52498  53.2192  44.9281 0001685 107.9889 252.1287 15.08837275176010
STARLINK-3894           
1 52499U 22049BA  25191.77190506 -.00000324  00000+0 -22676-5 0  9997
2 52499  53.2168  55.1313 0001457  89.1363 270.9796 15.08836327175872
STARLINK-3866           
1 52500U 22049BB  25191.81330552  .00000529  00000+0  51350-4 0  9997
2 52500  53.2192  44.9447 0001811 120.4491 239.6672 15.08840402176012
STARLINK-3907           
1 52501U 22049BC  25190.95492253  .00000186  00000+0  29768-4 0  9996
2 52501  53.2179  58.5949 0001384  86.3057 273.8093 15.08838234175756
STARLINK-3912           
1 52502U 22049BD  25191.74339157 -.00000062  00000+0  14197-4 0  9992
2 52502  53.2189  45.2849 0001473  84.5539 275.5621 15.08846806176003
STARLINK-3861           
1 52503U 22049BE  25191.73233000  .00000183  00000+0  29570-4 0  9996
2 52503  53.2183  45.1933 0001431  85.0135 275.1020 15.08839236176001
STARLINK-3952           
1 52534U 22051B   25191.14262166 -.00000079  00000+0  13148-4 0  9992
2 52534  53.2171 137.9587 0001424  86.3327 273.7828 15.08837522175562
STARLINK-3958           
1 52535U 22051C   25191.53638522 -.00000291  00000+0 -20517-6 0  9996
2 52535  53.2165 136.1879 0001345  79.7328 280.3815 15.08835914174887
STARLINK-3964           
1 52536U 22051D   25191.13526415 -.00000198  00000+0  56317-5 0  9991
2 52536  53.2173 137.9882 0001429  75.6023 284.5127 15.08836538174829
